{
  "type": "FeatureCollection",
  "features": [
    {
      "type": "Feature",
      "geometry": {
        "type": "Polygon",
        "coordinates": [
          [
            [
              -96.680377,
              32.9681137
            ],
            [
              -96.6792089,
              32.9681137
            ],
            [
              -96.6792089,
              32.96827
            ],
            [
              -96.680377,
              32.96827
            ],
            [
              -96.680377,
              32.9681137
            ]
          ]
        ]
      },
      "properties": {
        "address": "33XX COLLINS BLVD Garland TX",
        "incident": "THEFT-MOTOR VEH PARTS/ACCESSORIES-L/T $100",
        "short_description": "Motor Vehicle Parts Theft",
        "district": "21",
        "date": "12/21/2025"
      }
    },
    {
      "type": "Feature",
      "geometry": {
        "type": "Polygon",
        "coordinates": [
          [
            [
              -96.682468,
              32.953029
            ],
            [
              -96.681021,
              32.953029
            ],
            [
              -96.681021,
              32.953172
            ],
            [
              -96.682468,
              32.953172
            ],
            [
              -96.682468,
              32.953029
            ]
          ]
        ]
      },
      "properties": {
        "address": "34XX MOONGLOW DR Garland TX",
        "incident": "THEFT-MAIL <10 ADDRESSES",
        "short_description": "Mail Theft",
        "district": "21",
        "date": "12/22/2025"
      }
    },
    {
      "type": "Feature",
      "geometry": {
        "type": "Polygon",
        "coordinates": [
          [
            [
              -96.682367,
              32.965639
            ],
            [
              -96.679421,
              32.965639
            ],
            [
              -96.679421,
              32.966111
            ],
            [
              -96.682367,
              32.966111
            ],
            [
              -96.682367,
              32.965639
            ]
          ]
        ]
      },
      "properties": {
        "address": "34XX CROSSBOW LN Garland TX",
        "incident": "CRIMINAL MISCHIEF $100 L/T $750",
        "short_description": "Criminal Mischief",
        "district": "21",
        "date": "12/23/2025"
      }
    },
    {
      "type": "Feature",
      "geometry": {
        "type": "Polygon",
        "coordinates": [
          [
            [
              -96.6831025,
              32.9156426
            ],
            [
              -96.6828865,
              32.9156426
            ],
            [
              -96.6828865,
              32.9203266
            ],
            [
              -96.6831025,
              32.9203266
            ],
            [
              -96.6831025,
              32.9156426
            ]
          ]
        ]
      },
      "properties": {
        "address": "64XX N JUPITER RD Garland TX",
        "incident": "CRIMINAL MISCHIEF $100 L/T $750",
        "short_description": "Criminal Mischief",
        "district": "21",
        "date": "12/24/2025"
      }
    },
    {
      "type": "Feature",
      "geometry": {
        "type": "Polygon",
        "coordinates": [
          [
            [
              -96.6542717,
              32.9596754
            ],
            [
              -96.638025,
              32.9596754
            ],
            [
              -96.638025,
              32.9699765
            ],
            [
              -96.6542717,
              32.9699765
            ],
            [
              -96.6542717,
              32.9596754
            ]
          ]
        ]
      },
      "properties": {
        "address": "60XX NAAMAN FOREST BLVD Garland TX",
        "incident": "CRIMINAL MISCHIEF $750 L/T $2,500",
        "short_description": "CRIMINAL MISCHIEF $750 L/T $2,500",
        "district": "22",
        "date": "12/21/2025"
      }
    },
    {
      "type": "Feature",
      "geometry": {
        "type": "Polygon",
        "coordinates": [
          [
            [
              -96.656578,
              32.9709282
            ],
            [
              -96.6552665,
              32.9709282
            ],
            [
              -96.6552665,
              32.971297
            ],
            [
              -96.656578,
              32.971297
            ],
            [
              -96.656578,
              32.9709282
            ]
          ]
        ]
      },
      "properties": {
        "address": "62XX NAAMAN FOREST BLVD Garland TX",
        "incident": "BURGLARY-BLDG",
        "short_description": "Building Burglary",
        "district": "22",
        "date": "12/21/2025"
      }
    },
    {
      "type": "Feature",
      "geometry": {
        "type": "Polygon",
        "coordinates": [
          [
            [
              -96.656578,
              32.9709282
            ],
            [
              -96.6552665,
              32.9709282
            ],
            [
              -96.6552665,
              32.971297
            ],
            [
              -96.656578,
              32.971297
            ],
            [
              -96.656578,
              32.9709282
            ]
          ]
        ]
      },
      "properties": {
        "address": "62XX NAAMAN FOREST BLVD Garland TX",
        "incident": "THEFT-MAIL <10 ADDRESSES",
        "short_description": "Mail Theft",
        "district": "22",
        "date": "12/21/2025"
      }
    },
    {
      "type": "Feature",
      "geometry": {
        "type": "Polygon",
        "coordinates": [
          [
            [
              -96.643867,
              32.964446
            ],
            [
              -96.642215,
              32.964446
            ],
            [
              -96.642215,
              32.965461
            ],
            [
              -96.643867,
              32.965461
            ],
            [
              -96.643867,
              32.964446
            ]
          ]
        ]
      },
      "properties": {
        "address": "53XX N GARLAND AVE Garland TX",
        "incident": "THEFT-SHOPLIFTING-L/T $100",
        "short_description": "Shoplifting",
        "district": "22",
        "date": "12/22/2025"
      }
    },
    {
      "type": "Feature",
      "geometry": {
        "type": "Polygon",
        "coordinates": [
          [
            [
              -96.656578,
              32.9709282
            ],
            [
              -96.6552665,
              32.9709282
            ],
            [
              -96.6552665,
              32.971297
            ],
            [
              -96.656578,
              32.971297
            ],
            [
              -96.656578,
              32.9709282
            ]
          ]
        ]
      },
      "properties": {
        "address": "62XX NAAMAN FOREST BLVD Garland TX",
        "incident": "THEFT OF MAIL <=5 NEGOTIABLE INSTRUMENTS IAT",
        "short_description": "THEFT OF MAIL <=5 NEGOTIABLE INSTRUMENTS IAT",
        "district": "22",
        "date": "12/23/2025"
      }
    },
    {
      "type": "Feature",
      "geometry": {
        "type": "Polygon",
        "coordinates": [
          [
            [
              -96.657471,
              32.952883
            ],
            [
              -96.657125,
              32.952883
            ],
            [
              -96.657125,
              32.953018
            ],
            [
              -96.657471,
              32.953018
            ],
            [
              -96.657471,
              32.952883
            ]
          ]
        ]
      },
      "properties": {
        "address": "39XX BRANDON PARK DR Garland TX",
        "incident": "BURGLARY-HAB-(CRIM ATT)",
        "short_description": "BURGLARY-HAB-(CRIM ATT)",
        "district": "22",
        "date": "12/24/2025"
      }
    },
    {
      "type": "Feature",
      "geometry": {
        "type": "Polygon",
        "coordinates": [
          [
            [
              -96.643867,
              32.964446
            ],
            [
              -96.642215,
              32.964446
            ],
            [
              -96.642215,
              32.965461
            ],
            [
              -96.643867,
              32.965461
            ],
            [
              -96.643867,
              32.964446
            ]
          ]
        ]
      },
      "properties": {
        "address": "53XX N GARLAND AVE Garland TX",
        "incident": "THEFT-SHOPLIFTING-$750 L/T $2,500",
        "short_description": "THEFT-SHOPLIFTING-$750 L/T $2,500",
        "district": "22",
        "date": "12/24/2025"
      }
    },
    {
      "type": "Feature",
      "geometry": {
        "type": "Polygon",
        "coordinates": [
          [
            [
              -96.643867,
              32.964446
            ],
            [
              -96.642215,
              32.964446
            ],
            [
              -96.642215,
              32.965461
            ],
            [
              -96.643867,
              32.965461
            ],
            [
              -96.643867,
              32.964446
            ]
          ]
        ]
      },
      "properties": {
        "address": "53XX N GARLAND AVE Garland TX",
        "incident": "THEFT-SHOPLIFTING-L/T $100",
        "short_description": "Shoplifting",
        "district": "22",
        "date": "12/27/2025"
      }
    },
    {
      "type": "Feature",
      "geometry": {
        "type": "Polygon",
        "coordinates": [
          [
            [
              -96.6691533,
              32.9316432
            ],
            [
              -96.6683344,
              32.9316432
            ],
            [
              -96.6683344,
              32.9319454
            ],
            [
              -96.6691533,
              32.9319454
            ],
            [
              -96.6691533,
              32.9316432
            ]
          ]
        ]
      },
      "properties": {
        "address": "26XX WOODPARK DR Garland TX",
        "incident": "THEFT-ALL OTHER-L/T $100",
        "short_description": "THEFT-ALL OTHER-L/T $100",
        "district": "23",
        "date": "12/22/2025"
      }
    },
    {
      "type": "Feature",
      "geometry": {
        "type": "Polygon",
        "coordinates": [
          [
            [
              -96.6734559,
              32.94458
            ],
            [
              -96.672277,
              32.94458
            ],
            [
              -96.672277,
              32.9445941
            ],
            [
              -96.6734559,
              32.9445941
            ],
            [
              -96.6734559,
              32.94458
            ]
          ]
        ]
      },
      "properties": {
        "address": "29XX BELT LINE RD Garland TX",
        "incident": "UNAUTHORIZED USE MOTOR VEHICLE",
        "short_description": "Unauthorized Motor Vehicle Use",
        "district": "23",
        "date": "12/23/2025"
      }
    },
    {
      "type": "Feature",
      "geometry": {
        "type": "Polygon",
        "coordinates": [
          [
            [
              -96.6704125,
              32.9445538
            ],
            [
              -96.6625163,
              32.9445538
            ],
            [
              -96.6625163,
              32.9451137
            ],
            [
              -96.6704125,
              32.9451137
            ],
            [
              -96.6704125,
              32.9445538
            ]
          ]
        ]
      },
      "properties": {
        "address": "28XX BELT LINE RD Garland TX",
        "incident": "CRIMINAL MISCHIEF $100 L/T $750",
        "short_description": "Criminal Mischief",
        "district": "23",
        "date": "12/25/2025"
      }
    },
    {
      "type": "Feature",
      "geometry": {
        "type": "Polygon",
        "coordinates": [
          [
            [
              -96.66357090000001,
              32.9292582
            ],
            [
              -96.6615709,
              32.9292582
            ],
            [
              -96.6615709,
              32.931258199999995
            ],
            [
              -96.66357090000001,
              32.931258199999995
            ],
            [
              -96.66357090000001,
              32.9292582
            ]
          ]
        ]
      },
      "properties": {
        "address": "23XX W BUCKINGHAM RD Garland TX",
        "incident": "CRIMINAL MISCHIEF L/T $100",
        "short_description": "Criminal Mischief",
        "district": "23",
        "date": "12/26/2025"
      }
    },
    {
      "type": "Feature",
      "geometry": {
        "type": "Polygon",
        "coordinates": [
          [
            [
              -96.648344,
              32.9422598
            ],
            [
              -96.648287,
              32.9422598
            ],
            [
              -96.648287,
              32.944069
            ],
            [
              -96.648344,
              32.944069
            ],
            [
              -96.648344,
              32.9422598
            ]
          ]
        ]
      },
      "properties": {
        "address": "28XX N GARLAND AVE Garland TX",
        "incident": "ASSAULT-AGG-D/W",
        "short_description": "Aggravated Assault",
        "district": "23",
        "date": "12/27/2025"
      }
    },
    {
      "type": "Feature",
      "geometry": {
        "type": "Polygon",
        "coordinates": [
          [
            [
              -96.6495627,
              32.944946
            ],
            [
              -96.648309,
              32.944946
            ],
            [
              -96.648309,
              32.9452934
            ],
            [
              -96.6495627,
              32.9452934
            ],
            [
              -96.6495627,
              32.944946
            ]
          ]
        ]
      },
      "properties": {
        "address": "14XX BELT LINE RD Garland TX",
        "incident": "THEFT-SHOPLIFTING-L/T $100",
        "short_description": "Shoplifting",
        "district": "23",
        "date": "12/27/2025"
      }
    },
    {
      "type": "Feature",
      "geometry": {
        "type": "Polygon",
        "coordinates": [
          [
            [
              -96.6965519,
              32.9049742
            ],
            [
              -96.6963511,
              32.9049742
            ],
            [
              -96.6963511,
              32.9062878
            ],
            [
              -96.6965519,
              32.9062878
            ],
            [
              -96.6965519,
              32.9049742
            ]
          ]
        ]
      },
      "properties": {
        "address": "7XX SHEPHERD DR Garland TX",
        "incident": "CRIMINAL MISCHIEF $750 L/T $2,500",
        "short_description": "CRIMINAL MISCHIEF $750 L/T $2,500",
        "district": "24",
        "date": "12/22/2025"
      }
    },
    {
      "type": "Feature",
      "geometry": {
        "type": "Polygon",
        "coordinates": [
          [
            [
              -96.6847647,
              32.9169739
            ],
            [
              -96.683228,
              32.9169739
            ],
            [
              -96.683228,
              32.917085
            ],
            [
              -96.6847647,
              32.917085
            ],
            [
              -96.6847647,
              32.9169739
            ]
          ]
        ]
      },
      "properties": {
        "address": "35XX WALNUT ST Garland TX",
        "incident": "BURGLARY-BLDG-(CRIM ATT)",
        "short_description": "BURGLARY-BLDG-(CRIM ATT)",
        "district": "24",
        "date": "12/26/2025"
      }
    },
    {
      "type": "Feature",
      "geometry": {
        "type": "Polygon",
        "coordinates": [
          [
            [
              -96.695808,
              32.9176602
            ],
            [
              -96.6943207,
              32.9176602
            ],
            [
              -96.6943207,
              32.91783
            ],
            [
              -96.695808,
              32.91783
            ],
            [
              -96.695808,
              32.9176602
            ]
          ]
        ]
      },
      "properties": {
        "address": "41XX AMHERST DR Garland TX",
        "incident": "UNAUTHORIZED USE MOTOR VEHICLE",
        "short_description": "Unauthorized Motor Vehicle Use",
        "district": "24",
        "date": "12/27/2025"
      }
    },
    {
      "type": "Feature",
      "geometry": {
        "type": "Polygon",
        "coordinates": [
          [
            [
              -96.7040474,
              32.920564
            ],
            [
              -96.702223,
              32.920564
            ],
            [
              -96.702223,
              32.9208369
            ],
            [
              -96.7040474,
              32.9208369
            ],
            [
              -96.7040474,
              32.920564
            ]
          ]
        ]
      },
      "properties": {
        "address": "46XX WINDSOR DR Garland TX",
        "incident": "THEFT-FIREARM",
        "short_description": "THEFT-FIREARM",
        "district": "24",
        "date": "12/27/2025"
      }
    },
    {
      "type": "Feature",
      "geometry": {
        "type": "Polygon",
        "coordinates": [
          [
            [
              -96.6498314,
              32.9305256
            ],
            [
              -96.648461,
              32.9305256
            ],
            [
              -96.648461,
              32.930936
            ],
            [
              -96.6498314,
              32.930936
            ],
            [
              -96.6498314,
              32.9305256
            ]
          ]
        ]
      },
      "properties": {
        "address": "14XX W BUCKINGHAM RD Garland TX",
        "incident": "THEFT-SHOPLIFTING-$100 L/T $750",
        "short_description": "Shoplifting",
        "district": "25",
        "date": "12/23/2025"
      }
    },
    {
      "type": "Feature",
      "geometry": {
        "type": "Polygon",
        "coordinates": [
          [
            [
              -96.678894,
              32.929990000000004
            ],
            [
              -96.67689399999999,
              32.929990000000004
            ],
            [
              -96.67689399999999,
              32.93199
            ],
            [
              -96.678894,
              32.93199
            ],
            [
              -96.678894,
              32.929990000000004
            ]
          ]
        ]
      },
      "properties": {
        "address": "32XX W BUCKINGHAM RD Garland TX",
        "incident": "ROBBERY - AGG - INDIV",
        "short_description": "Aggravated Robbery",
        "district": "25",
        "date": "12/24/2025"
      }
    },
    {
      "type": "Feature",
      "geometry": {
        "type": "Polygon",
        "coordinates": [
          [
            [
              -96.657647,
              32.916229
            ],
            [
              -96.657549,
              32.916229
            ],
            [
              -96.657549,
              32.916584
            ],
            [
              -96.657647,
              32.916584
            ],
            [
              -96.657647,
              32.916229
            ]
          ]
        ]
      },
      "properties": {
        "address": "21XX W WALNUT ST Garland TX",
        "incident": "CRIMINAL MISCHIEF $100 L/T $750",
        "short_description": "Criminal Mischief",
        "district": "25",
        "date": "12/25/2025"
      }
    },
    {
      "type": "Feature",
      "geometry": {
        "type": "Polygon",
        "coordinates": [
          [
            [
              -96.679847,
              32.909049
            ],
            [
              -96.677033,
              32.909049
            ],
            [
              -96.677033,
              32.909386
            ],
            [
              -96.679847,
              32.909386
            ],
            [
              -96.679847,
              32.909049
            ]
          ]
        ]
      },
      "properties": {
        "address": "32XX FOREST LN Garland TX",
        "incident": "THEFT-SHOPLIFTING-$100 L/T $750",
        "short_description": "Shoplifting",
        "district": "26",
        "date": "12/21/2025"
      }
    },
    {
      "type": "Feature",
      "geometry": {
        "type": "Polygon",
        "coordinates": [
          [
            [
              -96.651838,
              32.916159
            ],
            [
              -96.648444,
              32.916159
            ],
            [
              -96.648444,
              32.916345
            ],
            [
              -96.651838,
              32.916345
            ],
            [
              -96.651838,
              32.916159
            ]
          ]
        ]
      },
      "properties": {
        "address": "14XX W WALNUT ST Garland TX",
        "incident": "INFO-THEFT",
        "short_description": "Theft",
        "district": "26",
        "date": "12/22/2025"
      }
    },
    {
      "type": "Feature",
      "geometry": {
        "type": "Polygon",
        "coordinates": [
          [
            [
              -96.6742502,
              32.8955418
            ],
            [
              -96.674234,
              32.8955418
            ],
            [
              -96.674234,
              32.8971
            ],
            [
              -96.6742502,
              32.8971
            ],
            [
              -96.6742502,
              32.8955418
            ]
          ]
        ]
      },
      "properties": {
        "address": "16XX KINGS RD Garland TX",
        "incident": "BURGLARY-BLDG",
        "short_description": "Building Burglary",
        "district": "27",
        "date": "12/21/2025"
      }
    },
    {
      "type": "Feature",
      "geometry": {
        "type": "Polygon",
        "coordinates": [
          [
            [
              -96.6742502,
              32.8955418
            ],
            [
              -96.674234,
              32.8955418
            ],
            [
              -96.674234,
              32.8971
            ],
            [
              -96.6742502,
              32.8971
            ],
            [
              -96.6742502,
              32.8955418
            ]
          ]
        ]
      },
      "properties": {
        "address": "16XX KINGS RD Garland TX",
        "incident": "CRIMINAL MISCHIEF $100 L/T $750",
        "short_description": "Criminal Mischief",
        "district": "27",
        "date": "12/21/2025"
      }
    },
    {
      "type": "Feature",
      "geometry": {
        "type": "Polygon",
        "coordinates": [
          [
            [
              -96.6932083,
              32.8944227
            ],
            [
              -96.67705,
              32.8944227
            ],
            [
              -96.67705,
              32.894603
            ],
            [
              -96.6932083,
              32.894603
            ],
            [
              -96.6932083,
              32.8944227
            ]
          ]
        ]
      },
      "properties": {
        "address": "31XX W MILLER RD Garland TX",
        "incident": "BURGLARY-BLDG",
        "short_description": "Building Burglary",
        "district": "27",
        "date": "12/22/2025"
      }
    },
    {
      "type": "Feature",
      "geometry": {
        "type": "Polygon",
        "coordinates": [
          [
            [
              -96.648706,
              32.8948698
            ],
            [
              -96.6486348,
              32.8948698
            ],
            [
              -96.6486348,
              32.8951829
            ],
            [
              -96.648706,
              32.8951829
            ],
            [
              -96.648706,
              32.8948698
            ]
          ]
        ]
      },
      "properties": {
        "address": "18XX S GARLAND AVE Garland TX",
        "incident": "THEFT-ALL OTHER-L/T $100",
        "short_description": "THEFT-ALL OTHER-L/T $100",
        "district": "27",
        "date": "12/23/2025"
      }
    },
    {
      "type": "Feature",
      "geometry": {
        "type": "Polygon",
        "coordinates": [
          [
            [
              -96.69154,
              32.900238
            ],
            [
              -96.69084,
              32.900238
            ],
            [
              -96.69084,
              32.900409
            ],
            [
              -96.69154,
              32.900409
            ],
            [
              -96.69154,
              32.900238
            ]
          ]
        ]
      },
      "properties": {
        "address": "39XX CAVALIER DR Garland TX",
        "incident": "BURGLARY-BLDG",
        "short_description": "Building Burglary",
        "district": "27",
        "date": "12/25/2025"
      }
    },
    {
      "type": "Feature",
      "geometry": {
        "type": "Polygon",
        "coordinates": [
          [
            [
              -96.6907867,
              32.8998781
            ],
            [
              -96.687123,
              32.8998781
            ],
            [
              -96.687123,
              32.9040618
            ],
            [
              -96.6907867,
              32.9040618
            ],
            [
              -96.6907867,
              32.8998781
            ]
          ]
        ]
      },
      "properties": {
        "address": "36XX MILLER PARK DR Garland TX",
        "incident": "BURGLARY-BLDG",
        "short_description": "Building Burglary",
        "district": "27",
        "date": "12/26/2025"
      }
    },
    {
      "type": "Feature",
      "geometry": {
        "type": "Polygon",
        "coordinates": [
          [
            [
              -96.643867,
              32.964446
            ],
            [
              -96.642215,
              32.964446
            ],
            [
              -96.642215,
              32.965461
            ],
            [
              -96.643867,
              32.965461
            ],
            [
              -96.643867,
              32.964446
            ]
          ]
        ]
      },
      "properties": {
        "address": "53XX N GARLAND AVE Garland TX",
        "incident": "THEFT-SHOPLIFTING-$100 L/T $750",
        "short_description": "Shoplifting",
        "district": "31",
        "date": "12/21/2025"
      }
    },
    {
      "type": "Feature",
      "geometry": {
        "type": "Polygon",
        "coordinates": [
          [
            [
              -96.643867,
              32.964446
            ],
            [
              -96.642215,
              32.964446
            ],
            [
              -96.642215,
              32.965461
            ],
            [
              -96.643867,
              32.965461
            ],
            [
              -96.643867,
              32.964446
            ]
          ]
        ]
      },
      "properties": {
        "address": "53XX N GARLAND AVE Garland TX",
        "incident": "THEFT-ALL OTHER-L/T $100",
        "short_description": "THEFT-ALL OTHER-L/T $100",
        "district": "31",
        "date": "12/22/2025"
      }
    },
    {
      "type": "Feature",
      "geometry": {
        "type": "Polygon",
        "coordinates": [
          [
            [
              -96.643867,
              32.964446
            ],
            [
              -96.642215,
              32.964446
            ],
            [
              -96.642215,
              32.965461
            ],
            [
              -96.643867,
              32.965461
            ],
            [
              -96.643867,
              32.964446
            ]
          ]
        ]
      },
      "properties": {
        "address": "53XX N GARLAND AVE Garland TX",
        "incident": "THEFT-SHOPLIFTING-$100 L/T $750",
        "short_description": "Shoplifting",
        "district": "31",
        "date": "12/23/2025"
      }
    },
    {
      "type": "Feature",
      "geometry": {
        "type": "Polygon",
        "coordinates": [
          [
            [
              -96.6386637,
              32.951424
            ],
            [
              -96.638103,
              32.951424
            ],
            [
              -96.638103,
              32.951649
            ],
            [
              -96.6386637,
              32.951649
            ],
            [
              -96.6386637,
              32.951424
            ]
          ]
        ]
      },
      "properties": {
        "address": "7XX AMBROSE CT Garland TX",
        "incident": "INFO-IDENTITY THEFT",
        "short_description": "Identity Theft",
        "district": "31",
        "date": "12/24/2025"
      }
    },
    {
      "type": "Feature",
      "geometry": {
        "type": "Polygon",
        "coordinates": [
          [
            [
              -96.643867,
              32.964446
            ],
            [
              -96.642215,
              32.964446
            ],
            [
              -96.642215,
              32.965461
            ],
            [
              -96.643867,
              32.965461
            ],
            [
              -96.643867,
              32.964446
            ]
          ]
        ]
      },
      "properties": {
        "address": "53XX N GARLAND AVE Garland TX",
        "incident": "THEFT-SHOPLIFTING-L/T $100",
        "short_description": "Shoplifting",
        "district": "31",
        "date": "12/27/2025"
      }
    },
    {
      "type": "Feature",
      "geometry": {
        "type": "Polygon",
        "coordinates": [
          [
            [
              -96.612648,
              32.953472
            ],
            [
              -96.611907,
              32.953472
            ],
            [
              -96.611907,
              32.953658
            ],
            [
              -96.612648,
              32.953658
            ],
            [
              -96.612648,
              32.953472
            ]
          ]
        ]
      },
      "properties": {
        "address": "2XX CEDAR SAGE DR Garland TX",
        "incident": "THEFT-SHOPLIFTING-$750 L/T $2,500",
        "short_description": "THEFT-SHOPLIFTING-$750 L/T $2,500",
        "district": "32",
        "date": "12/22/2025"
      }
    },
    {
      "type": "Feature",
      "geometry": {
        "type": "Polygon",
        "coordinates": [
          [
            [
              -96.6250723,
              32.9335594
            ],
            [
              -96.62483,
              32.9335594
            ],
            [
              -96.62483,
              32.934328
            ],
            [
              -96.6250723,
              32.934328
            ],
            [
              -96.6250723,
              32.9335594
            ]
          ]
        ]
      },
      "properties": {
        "address": "23XX LAVON DR Garland TX",
        "incident": "THEFT-ALL OTHER-$100 L/T $750",
        "short_description": "Theft - Other",
        "district": "32",
        "date": "12/22/2025"
      }
    },
    {
      "type": "Feature",
      "geometry": {
        "type": "Polygon",
        "coordinates": [
          [
            [
              -96.612648,
              32.953472
            ],
            [
              -96.611907,
              32.953472
            ],
            [
              -96.611907,
              32.953658
            ],
            [
              -96.612648,
              32.953658
            ],
            [
              -96.612648,
              32.953472
            ]
          ]
        ]
      },
      "properties": {
        "address": "2XX CEDAR SAGE DR Garland TX",
        "incident": "THEFT-SHOPLIFTING-$750 L/T $2,500",
        "short_description": "THEFT-SHOPLIFTING-$750 L/T $2,500",
        "district": "32",
        "date": "12/23/2025"
      }
    },
    {
      "type": "Feature",
      "geometry": {
        "type": "Polygon",
        "coordinates": [
          [
            [
              -96.597977,
              32.9392621
            ],
            [
              -96.5971694,
              32.9392621
            ],
            [
              -96.5971694,
              32.939933
            ],
            [
              -96.597977,
              32.939933
            ],
            [
              -96.597977,
              32.9392621
            ]
          ]
        ]
      },
      "properties": {
        "address": "24XX BELLBROOK LN Garland TX",
        "incident": "CRIMINAL MISCHIEF $2,500 L/T $30,000",
        "short_description": "CRIMINAL MISCHIEF $2,500 L/T $30,000",
        "district": "33",
        "date": "12/26/2025"
      }
    },
    {
      "type": "Feature",
      "geometry": {
        "type": "Polygon",
        "coordinates": [
          [
            [
              -96.613589,
              32.92691
            ],
            [
              -96.6115216,
              32.92691
            ],
            [
              -96.6115216,
              32.9270937
            ],
            [
              -96.613589,
              32.9270937
            ],
            [
              -96.613589,
              32.92691
            ]
          ]
        ]
      },
      "properties": {
        "address": "14XX MERIDIAN WY Garland TX",
        "incident": "CRIMINAL MISCHIEF $100 L/T $750",
        "short_description": "Criminal Mischief",
        "district": "33",
        "date": "12/26/2025"
      }
    },
    {
      "type": "Feature",
      "geometry": {
        "type": "Polygon",
        "coordinates": [
          [
            [
              -96.6434044,
              32.91699
            ],
            [
              -96.643219,
              32.91699
            ],
            [
              -96.643219,
              32.9190626
            ],
            [
              -96.6434044,
              32.9190626
            ],
            [
              -96.6434044,
              32.91699
            ]
          ]
        ]
      },
      "properties": {
        "address": "5XX SYLVAN DR Garland TX",
        "incident": "THEFT-ALL OTHER-$100 L/T $750",
        "short_description": "Theft - Other",
        "district": "34",
        "date": "12/26/2025"
      }
    },
    {
      "type": "Feature",
      "geometry": {
        "type": "Polygon",
        "coordinates": [
          [
            [
              -96.64905830000001,
              32.897894900000004
            ],
            [
              -96.6470583,
              32.897894900000004
            ],
            [
              -96.6470583,
              32.8998949
            ],
            [
              -96.64905830000001,
              32.8998949
            ],
            [
              -96.64905830000001,
              32.897894900000004
            ]
          ]
        ]
      },
      "properties": {
        "address": "16XX S GARLAND AVE Garland TX",
        "incident": "THEFT-ALL OTHER-L/T $100",
        "short_description": "THEFT-ALL OTHER-L/T $100",
        "district": "34",
        "date": "12/26/2025"
      }
    },
    {
      "type": "Feature",
      "geometry": {
        "type": "Polygon",
        "coordinates": [
          [
            [
              -96.609989,
              32.917409
            ],
            [
              -96.608032,
              32.917409
            ],
            [
              -96.608032,
              32.918615
            ],
            [
              -96.609989,
              32.918615
            ],
            [
              -96.609989,
              32.917409
            ]
          ]
        ]
      },
      "properties": {
        "address": "15XX SHOREHAVEN DR Garland TX",
        "incident": "CRIMINAL MISCHIEF $100 L/T $750",
        "short_description": "Criminal Mischief",
        "district": "35",
        "date": "12/24/2025"
      }
    },
    {
      "type": "Feature",
      "geometry": {
        "type": "Polygon",
        "coordinates": [
          [
            [
              -96.6451861,
              32.8954819
            ],
            [
              -96.6450377,
              32.8954819
            ],
            [
              -96.6450377,
              32.896535
            ],
            [
              -96.6451861,
              32.896535
            ],
            [
              -96.6451861,
              32.8954819
            ]
          ]
        ]
      },
      "properties": {
        "address": "18XX S GLENBROOK DR Garland TX",
        "incident": "UNAUTHORIZED USE MOTOR VEHICLE",
        "short_description": "Unauthorized Motor Vehicle Use",
        "district": "36",
        "date": "12/25/2025"
      }
    },
    {
      "type": "Feature",
      "geometry": {
        "type": "Polygon",
        "coordinates": [
          [
            [
              -96.629507,
              32.8950687
            ],
            [
              -96.6285923,
              32.8950687
            ],
            [
              -96.6285923,
              32.895233
            ],
            [
              -96.629507,
              32.895233
            ],
            [
              -96.629507,
              32.8950687
            ]
          ]
        ]
      },
      "properties": {
        "address": "2XX SENECA DR Garland TX",
        "incident": "BURGLARY-VEH",
        "short_description": "Vehicle Burglary",
        "district": "37",
        "date": "12/23/2025"
      }
    },
    {
      "type": "Feature",
      "geometry": {
        "type": "Polygon",
        "coordinates": [
          [
            [
              -96.601299,
              32.896458
            ],
            [
              -96.601131,
              32.896458
            ],
            [
              -96.601131,
              32.896771
            ],
            [
              -96.601299,
              32.896771
            ],
            [
              -96.601299,
              32.896458
            ]
          ]
        ]
      },
      "properties": {
        "address": "17XX RUSTIC LN Garland TX",
        "incident": "INFO-IDENTITY THEFT",
        "short_description": "Identity Theft",
        "district": "37",
        "date": "12/26/2025"
      }
    },
    {
      "type": "Feature",
      "geometry": {
        "type": "Polygon",
        "coordinates": [
          [
            [
              -96.610689,
              32.894627
            ],
            [
              -96.61034,
              32.894627
            ],
            [
              -96.61034,
              32.894784
            ],
            [
              -96.610689,
              32.894784
            ],
            [
              -96.610689,
              32.894627
            ]
          ]
        ]
      },
      "properties": {
        "address": "15XX THRUSH CT Garland TX",
        "incident": "THEFT-ALL OTHER-$2,500 L/T $30,000",
        "short_description": "Theft - Other",
        "district": "37",
        "date": "12/27/2025"
      }
    },
    {
      "type": "Feature",
      "geometry": {
        "type": "Polygon",
        "coordinates": [
          [
            [
              -96.6661631,
              32.8660949
            ],
            [
              -96.6651631,
              32.8660949
            ],
            [
              -96.6651631,
              32.867094900000005
            ],
            [
              -96.6661631,
              32.867094900000005
            ],
            [
              -96.6661631,
              32.8660949
            ]
          ]
        ]
      },
      "properties": {
        "address": "20XX S SHILOH RD Garland TX",
        "incident": "ROBBERY-INDIV",
        "short_description": "ROBBERY-INDIV",
        "district": "41",
        "date": "12/24/2025"
      }
    },
    {
      "type": "Feature",
      "geometry": {
        "type": "Polygon",
        "coordinates": [
          [
            [
              -96.65828180000001,
              32.8934049
            ],
            [
              -96.6562818,
              32.8934049
            ],
            [
              -96.6562818,
              32.895404899999996
            ],
            [
              -96.65828180000001,
              32.895404899999996
            ],
            [
              -96.65828180000001,
              32.8934049
            ]
          ]
        ]
      },
      "properties": {
        "address": "36XX W MILLER RD Garland TX",
        "incident": "CRIMINAL MISCHIEF $100 L/T $750",
        "short_description": "Criminal Mischief",
        "district": "41",
        "date": "12/26/2025"
      }
    },
    {
      "type": "Feature",
      "geometry": {
        "type": "Polygon",
        "coordinates": [
          [
            [
              -96.665692,
              32.881773
            ],
            [
              -96.665687,
              32.881773
            ],
            [
              -96.665687,
              32.8826938
            ],
            [
              -96.665692,
              32.8826938
            ],
            [
              -96.665692,
              32.881773
            ]
          ]
        ]
      },
      "properties": {
        "address": "28XX S SHILOH RD Garland TX",
        "incident": "THEFT-ALL OTHER-$150,000 L/T $300,000",
        "short_description": "THEFT-ALL OTHER-$150,000 L/T $300,000",
        "district": "41",
        "date": "12/26/2025"
      }
    },
    {
      "type": "Feature",
      "geometry": {
        "type": "Polygon",
        "coordinates": [
          [
            [
              -96.648274,
              32.878636
            ],
            [
              -96.64585,
              32.878636
            ],
            [
              -96.64585,
              32.878981
            ],
            [
              -96.648274,
              32.878981
            ],
            [
              -96.648274,
              32.878636
            ]
          ]
        ]
      },
      "properties": {
        "address": "14XX W KINGSLEY RD Garland TX",
        "incident": "CRIMINAL MISCHIEF $2,500 L/T $30,000",
        "short_description": "CRIMINAL MISCHIEF $2,500 L/T $30,000",
        "district": "41",
        "date": "12/27/2025"
      }
    },
    {
      "type": "Feature",
      "geometry": {
        "type": "Polygon",
        "coordinates": [
          [
            [
              -96.629491,
              32.8932567
            ],
            [
              -96.6283676,
              32.8932567
            ],
            [
              -96.6283676,
              32.893423
            ],
            [
              -96.629491,
              32.893423
            ],
            [
              -96.629491,
              32.8932567
            ]
          ]
        ]
      },
      "properties": {
        "address": "2XX CASCADE DR Garland TX",
        "incident": "BURGLARY-VEH",
        "short_description": "Vehicle Burglary",
        "district": "42",
        "date": "12/23/2025"
      }
    },
    {
      "type": "Feature",
      "geometry": {
        "type": "Polygon",
        "coordinates": [
          [
            [
              -96.632089,
              32.8785965
            ],
            [
              -96.631064,
              32.8785965
            ],
            [
              -96.631064,
              32.878609
            ],
            [
              -96.632089,
              32.878609
            ],
            [
              -96.632089,
              32.8785965
            ]
          ]
        ]
      },
      "properties": {
        "address": "1XX W KINGSLEY RD Garland TX",
        "incident": "CRIMINAL MISCHIEF $100 L/T $750",
        "short_description": "Criminal Mischief",
        "district": "42",
        "date": "12/24/2025"
      }
    },
    {
      "type": "Feature",
      "geometry": {
        "type": "Polygon",
        "coordinates": [
          [
            [
              -96.622305,
              32.881638
            ],
            [
              -96.622089,
              32.881638
            ],
            [
              -96.622089,
              32.882749
            ],
            [
              -96.622305,
              32.882749
            ],
            [
              -96.622305,
              32.881638
            ]
          ]
        ]
      },
      "properties": {
        "address": "28XX DAIRY RD Garland TX",
        "incident": "CRIMINAL MISCHIEF $100 L/T $750",
        "short_description": "Criminal Mischief",
        "district": "42",
        "date": "12/25/2025"
      }
    },
    {
      "type": "Feature",
      "geometry": {
        "type": "Polygon",
        "coordinates": [
          [
            [
              -96.639291,
              32.890045
            ],
            [
              -96.63796,
              32.890045
            ],
            [
              -96.63796,
              32.892364
            ],
            [
              -96.639291,
              32.892364
            ],
            [
              -96.639291,
              32.890045
            ]
          ]
        ]
      },
      "properties": {
        "address": "21XX SKILLMAN DR Garland TX",
        "incident": "BURGLARY-BLDG",
        "short_description": "Building Burglary",
        "district": "42",
        "date": "12/26/2025"
      }
    },
    {
      "type": "Feature",
      "geometry": {
        "type": "Polygon",
        "coordinates": [
          [
            [
              -96.639291,
              32.890045
            ],
            [
              -96.63796,
              32.890045
            ],
            [
              -96.63796,
              32.892364
            ],
            [
              -96.639291,
              32.892364
            ],
            [
              -96.639291,
              32.890045
            ]
          ]
        ]
      },
      "properties": {
        "address": "21XX SKILLMAN DR Garland TX",
        "incident": "THEFT-VEHICLE (NON-MOTOR VEH)-$30,000 L/T $150,000",
        "short_description": "THEFT-VEHICLE (NON-MOTOR VEH)-$30,000 L/T $150,000",
        "district": "42",
        "date": "12/26/2025"
      }
    },
    {
      "type": "Feature",
      "geometry": {
        "type": "Polygon",
        "coordinates": [
          [
            [
              -96.639291,
              32.890045
            ],
            [
              -96.63796,
              32.890045
            ],
            [
              -96.63796,
              32.892364
            ],
            [
              -96.639291,
              32.892364
            ],
            [
              -96.639291,
              32.890045
            ]
          ]
        ]
      },
      "properties": {
        "address": "21XX SKILLMAN DR Garland TX",
        "incident": "UNAUTHORIZED USE MOTOR VEHICLE",
        "short_description": "Unauthorized Motor Vehicle Use",
        "district": "42",
        "date": "12/26/2025"
      }
    },
    {
      "type": "Feature",
      "geometry": {
        "type": "Polygon",
        "coordinates": [
          [
            [
              -96.6270519,
              32.8740798
            ],
            [
              -96.61857,
              32.8740798
            ],
            [
              -96.61857,
              32.8813957
            ],
            [
              -96.6270519,
              32.8813957
            ],
            [
              -96.6270519,
              32.8740798
            ]
          ]
        ]
      },
      "properties": {
        "address": "9XX E CENTERVILLE RD Garland TX",
        "incident": "UNAUTHORIZED USE MOTOR VEHICLE",
        "short_description": "Unauthorized Motor Vehicle Use",
        "district": "42",
        "date": "12/26/2025"
      }
    },
    {
      "type": "Feature",
      "geometry": {
        "type": "Polygon",
        "coordinates": [
          [
            [
              -96.6372674,
              32.8877254
            ],
            [
              -96.636094,
              32.8877254
            ],
            [
              -96.636094,
              32.888209
            ],
            [
              -96.6372674,
              32.888209
            ],
            [
              -96.6372674,
              32.8877254
            ]
          ]
        ]
      },
      "properties": {
        "address": "5XX VISTA DR Garland TX",
        "incident": "ASSAULT-AGG-D/W",
        "short_description": "Aggravated Assault",
        "district": "42",
        "date": "12/27/2025"
      }
    },
    {
      "type": "Feature",
      "geometry": {
        "type": "Polygon",
        "coordinates": [
          [
            [
              -96.6517776,
              32.8658755
            ],
            [
              -96.650631,
              32.8658755
            ],
            [
              -96.650631,
              32.866501
            ],
            [
              -96.6517776,
              32.866501
            ],
            [
              -96.6517776,
              32.8658755
            ]
          ]
        ]
      },
      "properties": {
        "address": "15XX CLEAR POINT DR Garland TX",
        "incident": "THEFT-MAIL <10 ADDRESSES",
        "short_description": "Mail Theft",
        "district": "43",
        "date": "12/22/2025"
      }
    },
    {
      "type": "Feature",
      "geometry": {
        "type": "Polygon",
        "coordinates": [
          [
            [
              -96.6876195,
              32.8768974
            ],
            [
              -96.68661949999999,
              32.8768974
            ],
            [
              -96.68661949999999,
              32.8778974
            ],
            [
              -96.6876195,
              32.8778974
            ],
            [
              -96.6876195,
              32.8768974
            ]
          ]
        ]
      },
      "properties": {
        "address": "122XX LBJ FRWY Garland TX",
        "incident": "THEFT-MOTOR VEHICLE-$30,000 L/T $150,000",
        "short_description": "THEFT-MOTOR VEHICLE-$30,000 L/T $150,000",
        "district": "43",
        "date": "12/22/2025"
      }
    },
    {
      "type": "Feature",
      "geometry": {
        "type": "Polygon",
        "coordinates": [
          [
            [
              -96.650436,
              32.877599000000004
            ],
            [
              -96.64843599999999,
              32.877599000000004
            ],
            [
              -96.64843599999999,
              32.879599
            ],
            [
              -96.650436,
              32.879599
            ],
            [
              -96.650436,
              32.877599000000004
            ]
          ]
        ]
      },
      "properties": {
        "address": "15XX W KINGSLEY RD Garland TX",
        "incident": "ASSAULT-AGG-D/W",
        "short_description": "Aggravated Assault",
        "district": "43",
        "date": "12/22/2025"
      }
    },
    {
      "type": "Feature",
      "geometry": {
        "type": "Polygon",
        "coordinates": [
          [
            [
              -96.652197,
              32.8682212
            ],
            [
              -96.6504032,
              32.8682212
            ],
            [
              -96.6504032,
              32.868497
            ],
            [
              -96.652197,
              32.868497
            ],
            [
              -96.652197,
              32.8682212
            ]
          ]
        ]
      },
      "properties": {
        "address": "15XX DOUGLAS DR Garland TX",
        "incident": "CRIMINAL MISCHIEF $750 L/T $2,500",
        "short_description": "CRIMINAL MISCHIEF $750 L/T $2,500",
        "district": "43",
        "date": "12/24/2025"
      }
    },
    {
      "type": "Feature",
      "geometry": {
        "type": "Polygon",
        "coordinates": [
          [
            [
              -96.652445,
              32.867374
            ],
            [
              -96.650475,
              32.867374
            ],
            [
              -96.650475,
              32.867552
            ],
            [
              -96.652445,
              32.867552
            ],
            [
              -96.652445,
              32.867374
            ]
          ]
        ]
      },
      "properties": {
        "address": "15XX LEXINGTON DR Garland TX",
        "incident": "BURGLARY-VEH",
        "short_description": "Vehicle Burglary",
        "district": "43",
        "date": "12/25/2025"
      }
    },
    {
      "type": "Feature",
      "geometry": {
        "type": "Polygon",
        "coordinates": [
          [
            [
              -96.652445,
              32.867374
            ],
            [
              -96.650475,
              32.867374
            ],
            [
              -96.650475,
              32.867552
            ],
            [
              -96.652445,
              32.867552
            ],
            [
              -96.652445,
              32.867374
            ]
          ]
        ]
      },
      "properties": {
        "address": "15XX LEXINGTON DR Garland TX",
        "incident": "UNAUTHORIZED USE MOTOR VEHICLE-(CRIM ATT)",
        "short_description": "Unauthorized Motor Vehicle Use",
        "district": "43",
        "date": "12/25/2025"
      }
    },
    {
      "type": "Feature",
      "geometry": {
        "type": "Polygon",
        "coordinates": [
          [
            [
              -96.649089,
              32.872121
            ],
            [
              -96.648893,
              32.872121
            ],
            [
              -96.648893,
              32.872126
            ],
            [
              -96.649089,
              32.872126
            ],
            [
              -96.649089,
              32.872121
            ]
          ]
        ]
      },
      "properties": {
        "address": "36XX CARROLL CIR Garland TX",
        "incident": "CRIMINAL MISCHIEF $750 L/T $2,500",
        "short_description": "CRIMINAL MISCHIEF $750 L/T $2,500",
        "district": "43",
        "date": "12/25/2025"
      }
    },
    {
      "type": "Feature",
      "geometry": {
        "type": "Polygon",
        "coordinates": [
          [
            [
              -96.649089,
              32.872121
            ],
            [
              -96.648893,
              32.872121
            ],
            [
              -96.648893,
              32.872126
            ],
            [
              -96.649089,
              32.872126
            ],
            [
              -96.649089,
              32.872121
            ]
          ]
        ]
      },
      "properties": {
        "address": "36XX CARROLL CIR Garland TX",
        "incident": "THEFT-ALL OTHER-$100 L/T $750",
        "short_description": "Theft - Other",
        "district": "43",
        "date": "12/25/2025"
      }
    },
    {
      "type": "Feature",
      "geometry": {
        "type": "Polygon",
        "coordinates": [
          [
            [
              -96.6593768,
              32.8639941
            ],
            [
              -96.6587483,
              32.8639941
            ],
            [
              -96.6587483,
              32.8641325
            ],
            [
              -96.6593768,
              32.8641325
            ],
            [
              -96.6593768,
              32.8639941
            ]
          ]
        ]
      },
      "properties": {
        "address": "9XX NORTHWEST HWY Garland TX",
        "incident": "CRIMINAL MISCHIEF $2,500 L/T $30,000",
        "short_description": "CRIMINAL MISCHIEF $2,500 L/T $30,000",
        "district": "44",
        "date": "12/21/2025"
      }
    },
    {
      "type": "Feature",
      "geometry": {
        "type": "Polygon",
        "coordinates": [
          [
            [
              -96.6466284,
              32.8632979
            ],
            [
              -96.6452248,
              32.8632979
            ],
            [
              -96.6452248,
              32.8639344
            ],
            [
              -96.6466284,
              32.8639344
            ],
            [
              -96.6466284,
              32.8632979
            ]
          ]
        ]
      },
      "properties": {
        "address": "12XX NORTHWEST HWY Garland TX",
        "incident": "BURGLARY-BLDG",
        "short_description": "Building Burglary",
        "district": "44",
        "date": "12/22/2025"
      }
    },
    {
      "type": "Feature",
      "geometry": {
        "type": "Polygon",
        "coordinates": [
          [
            [
              -96.633119,
              32.8785964
            ],
            [
              -96.6320994,
              32.8785964
            ],
            [
              -96.6320994,
              32.878947
            ],
            [
              -96.633119,
              32.878947
            ],
            [
              -96.633119,
              32.8785964
            ]
          ]
        ]
      },
      "properties": {
        "address": "2XX W KINGSLEY RD Garland TX",
        "incident": "ROBBERY - AGG - INDIV",
        "short_description": "Aggravated Robbery",
        "district": "44",
        "date": "12/22/2025"
      }
    },
    {
      "type": "Feature",
      "geometry": {
        "type": "Polygon",
        "coordinates": [
          [
            [
              -96.6173868,
              32.861705099999995
            ],
            [
              -96.6163868,
              32.861705099999995
            ],
            [
              -96.6163868,
              32.8627051
            ],
            [
              -96.6173868,
              32.8627051
            ],
            [
              -96.6173868,
              32.861705099999995
            ]
          ]
        ]
      },
      "properties": {
        "address": "HARTFORD DR Garland TX",
        "incident": "THEFT-ALL OTHER-$2,500 L/T $30,000",
        "short_description": "Theft - Other",
        "district": "45",
        "date": "12/21/2025"
      }
    },
    {
      "type": "Feature",
      "geometry": {
        "type": "Polygon",
        "coordinates": [
          [
            [
              -96.6236097,
              32.8708693
            ],
            [
              -96.622753,
              32.8708693
            ],
            [
              -96.622753,
              32.871585
            ],
            [
              -96.6236097,
              32.871585
            ],
            [
              -96.6236097,
              32.8708693
            ]
          ]
        ]
      },
      "properties": {
        "address": "3XX HOCKADAY AVE Garland TX",
        "incident": "CRIMINAL MISCHIEF $100 L/T $750",
        "short_description": "Criminal Mischief",
        "district": "45",
        "date": "12/22/2025"
      }
    },
    {
      "type": "Feature",
      "geometry": {
        "type": "Polygon",
        "coordinates": [
          [
            [
              -96.617982,
              32.87382
            ],
            [
              -96.615955,
              32.87382
            ],
            [
              -96.615955,
              32.876097
            ],
            [
              -96.617982,
              32.876097
            ],
            [
              -96.617982,
              32.87382
            ]
          ]
        ]
      },
      "properties": {
        "address": "33XX BROADWAY BLVD Garland TX",
        "incident": "BURGLARY-BLDG",
        "short_description": "Building Burglary",
        "district": "45",
        "date": "12/25/2025"
      }
    },
    {
      "type": "Feature",
      "geometry": {
        "type": "Polygon",
        "coordinates": [
          [
            [
              -96.6547268,
              32.8620911
            ],
            [
              -96.653476,
              32.8620911
            ],
            [
              -96.653476,
              32.863894
            ],
            [
              -96.6547268,
              32.863894
            ],
            [
              -96.6547268,
              32.8620911
            ]
          ]
        ]
      },
      "properties": {
        "address": "18XX MARKETPLACE DR Garland TX",
        "incident": "THEFT-SHOPLIFTING-$100 L/T $750",
        "short_description": "Shoplifting",
        "district": "46",
        "date": "12/24/2025"
      }
    },
    {
      "type": "Feature",
      "geometry": {
        "type": "Polygon",
        "coordinates": [
          [
            [
              -96.648469,
              32.8606737
            ],
            [
              -96.648273,
              32.8606737
            ],
            [
              -96.648273,
              32.8617422
            ],
            [
              -96.648469,
              32.8617422
            ],
            [
              -96.648469,
              32.8606737
            ]
          ]
        ]
      },
      "properties": {
        "address": "46XX SATURN RD Garland TX",
        "incident": "THEFT-ALL OTHER-$100 L/T $750",
        "short_description": "Theft - Other",
        "district": "46",
        "date": "12/25/2025"
      }
    },
    {
      "type": "Feature",
      "geometry": {
        "type": "Polygon",
        "coordinates": [
          [
            [
              -96.648151,
              32.856645
            ],
            [
              -96.6474622,
              32.856645
            ],
            [
              -96.6474622,
              32.8572214
            ],
            [
              -96.648151,
              32.8572214
            ],
            [
              -96.648151,
              32.856645
            ]
          ]
        ]
      },
      "properties": {
        "address": "13XX W CENTERVILLE RD Garland TX",
        "incident": "THEFT OF SERVICE-$100 L/T $750",
        "short_description": "THEFT OF SERVICE-$100 L/T $750",
        "district": "46",
        "date": "12/26/2025"
      }
    },
    {
      "type": "Feature",
      "geometry": {
        "type": "Polygon",
        "coordinates": [
          [
            [
              -96.6547268,
              32.8620911
            ],
            [
              -96.653476,
              32.8620911
            ],
            [
              -96.653476,
              32.863894
            ],
            [
              -96.6547268,
              32.863894
            ],
            [
              -96.6547268,
              32.8620911
            ]
          ]
        ]
      },
      "properties": {
        "address": "18XX MARKETPLACE DR Garland TX",
        "incident": "THEFT-ALL OTHER-$100 L/T $750",
        "short_description": "Theft - Other",
        "district": "46",
        "date": "12/27/2025"
      }
    },
    {
      "type": "Feature",
      "geometry": {
        "type": "Polygon",
        "coordinates": [
          [
            [
              -96.627684,
              32.8478826
            ],
            [
              -96.6261535,
              32.8478826
            ],
            [
              -96.6261535,
              32.849376
            ],
            [
              -96.627684,
              32.849376
            ],
            [
              -96.627684,
              32.8478826
            ]
          ]
        ]
      },
      "properties": {
        "address": "55XX VALLEY MILLS DR Garland TX",
        "incident": "UNAUTHORIZED USE MOTOR VEHICLE",
        "short_description": "Unauthorized Motor Vehicle Use",
        "district": "51",
        "date": "12/21/2025"
      }
    },
    {
      "type": "Feature",
      "geometry": {
        "type": "Polygon",
        "coordinates": [
          [
            [
              -96.62944,
              32.860937
            ],
            [
              -96.627401,
              32.860937
            ],
            [
              -96.627401,
              32.862558
            ],
            [
              -96.62944,
              32.862558
            ],
            [
              -96.62944,
              32.860937
            ]
          ]
        ]
      },
      "properties": {
        "address": "3XX CLEARFIELD DR Garland TX",
        "incident": "CRIMINAL MISCHIEF $100 L/T $750",
        "short_description": "Criminal Mischief",
        "district": "51",
        "date": "12/22/2025"
      }
    },
    {
      "type": "Feature",
      "geometry": {
        "type": "Polygon",
        "coordinates": [
          [
            [
              -96.629988,
              32.856487
            ],
            [
              -96.627848,
              32.856487
            ],
            [
              -96.627848,
              32.857179
            ],
            [
              -96.629988,
              32.857179
            ],
            [
              -96.629988,
              32.856487
            ]
          ]
        ]
      },
      "properties": {
        "address": "5XX SANTA CRUZ DR Garland TX",
        "incident": "BURGLARY-HAB",
        "short_description": "Habitation Burglary",
        "district": "51",
        "date": "12/22/2025"
      }
    },
    {
      "type": "Feature",
      "geometry": {
        "type": "Polygon",
        "coordinates": [
          [
            [
              -96.636544,
              32.857826
            ],
            [
              -96.634834,
              32.857826
            ],
            [
              -96.634834,
              32.859516
            ],
            [
              -96.636544,
              32.859516
            ],
            [
              -96.636544,
              32.857826
            ]
          ]
        ]
      },
      "properties": {
        "address": "50XX LEAMEADOW DR Garland TX",
        "incident": "BURGLARY-VEH",
        "short_description": "Vehicle Burglary",
        "district": "51",
        "date": "12/22/2025"
      }
    },
    {
      "type": "Feature",
      "geometry": {
        "type": "Polygon",
        "coordinates": [
          [
            [
              -96.630265,
              32.861496
            ],
            [
              -96.628088,
              32.861496
            ],
            [
              -96.628088,
              32.863163
            ],
            [
              -96.630265,
              32.863163
            ],
            [
              -96.630265,
              32.861496
            ]
          ]
        ]
      },
      "properties": {
        "address": "3XX BIRCHWOOD DR Garland TX",
        "incident": "UNAUTHORIZED USE MOTOR VEHICLE",
        "short_description": "Unauthorized Motor Vehicle Use",
        "district": "51",
        "date": "12/23/2025"
      }
    },
    {
      "type": "Feature",
      "geometry": {
        "type": "Polygon",
        "coordinates": [
          [
            [
              -96.6140485,
              32.8429861
            ],
            [
              -96.612976,
              32.8429861
            ],
            [
              -96.612976,
              32.843653
            ],
            [
              -96.6140485,
              32.843653
            ],
            [
              -96.6140485,
              32.8429861
            ]
          ]
        ]
      },
      "properties": {
        "address": "5XX TRAIL VIEW LN Garland TX",
        "incident": "THEFT-MAIL <10 ADDRESSES",
        "short_description": "Mail Theft",
        "district": "52",
        "date": "12/22/2025"
      }
    },
    {
      "type": "Feature",
      "geometry": {
        "type": "Polygon",
        "coordinates": [
          [
            [
              -96.6021068,
              32.8445623
            ],
            [
              -96.5956579,
              32.8445623
            ],
            [
              -96.5956579,
              32.8573574
            ],
            [
              -96.6021068,
              32.8573574
            ],
            [
              -96.6021068,
              32.8445623
            ]
          ]
        ]
      },
      "properties": {
        "address": "57XX BROADWAY BLVD Garland TX",
        "incident": "BURGLARY-BLDG-(CRIM ATT)",
        "short_description": "BURGLARY-BLDG-(CRIM ATT)",
        "district": "52",
        "date": "12/24/2025"
      }
    },
    {
      "type": "Feature",
      "geometry": {
        "type": "Polygon",
        "coordinates": [
          [
            [
              -96.594076,
              32.8672905
            ],
            [
              -96.593549,
              32.8672905
            ],
            [
              -96.593549,
              32.867665
            ],
            [
              -96.594076,
              32.867665
            ],
            [
              -96.594076,
              32.8672905
            ]
          ]
        ]
      },
      "properties": {
        "address": "15XX REDBIRD DR Garland TX",
        "incident": "UNAUTHORIZED USE MOTOR VEHICLE",
        "short_description": "Unauthorized Motor Vehicle Use",
        "district": "53",
        "date": "12/22/2025"
      }
    },
    {
      "type": "Feature",
      "geometry": {
        "type": "Polygon",
        "coordinates": [
          [
            [
              -96.61794350000001,
              32.8740496
            ],
            [
              -96.6159435,
              32.8740496
            ],
            [
              -96.6159435,
              32.876049599999995
            ],
            [
              -96.61794350000001,
              32.876049599999995
            ],
            [
              -96.61794350000001,
              32.8740496
            ]
          ]
        ]
      },
      "properties": {
        "address": "43XX BROADWAY BLVD Garland TX",
        "incident": "CRIMINAL MISCHIEF $100 L/T $750",
        "short_description": "Criminal Mischief",
        "district": "53",
        "date": "12/23/2025"
      }
    },
    {
      "type": "Feature",
      "geometry": {
        "type": "Polygon",
        "coordinates": [
          [
            [
              -96.6019529,
              32.8557869
            ],
            [
              -96.6014938,
              32.8557869
            ],
            [
              -96.6014938,
              32.8565589
            ],
            [
              -96.6019529,
              32.8565589
            ],
            [
              -96.6019529,
              32.8557869
            ]
          ]
        ]
      },
      "properties": {
        "address": "48XX BROADWAY BLVD Garland TX",
        "incident": "CRIMINAL MISCHIEF L/T $100",
        "short_description": "Criminal Mischief",
        "district": "53",
        "date": "12/24/2025"
      }
    },
    {
      "type": "Feature",
      "geometry": {
        "type": "Polygon",
        "coordinates": [
          [
            [
              -96.63064490000001,
              32.884897800000005
            ],
            [
              -96.6286449,
              32.884897800000005
            ],
            [
              -96.6286449,
              32.8868978
            ],
            [
              -96.63064490000001,
              32.8868978
            ],
            [
              -96.63064490000001,
              32.884897800000005
            ]
          ]
        ]
      },
      "properties": {
        "address": "40XX BROADWAY BLVD Garland TX",
        "incident": "BURGLARY-BLDG",
        "short_description": "Building Burglary",
        "district": "53",
        "date": "12/25/2025"
      }
    },
    {
      "type": "Feature",
      "geometry": {
        "type": "Polygon",
        "coordinates": [
          [
            [
              -96.5995065,
              32.8585808
            ],
            [
              -96.598683,
              32.8585808
            ],
            [
              -96.598683,
              32.859496
            ],
            [
              -96.5995065,
              32.859496
            ],
            [
              -96.5995065,
              32.8585808
            ]
          ]
        ]
      },
      "properties": {
        "address": "7XX WAIKIKI DR Garland TX",
        "incident": "UNAUTHORIZED USE MOTOR VEHICLE",
        "short_description": "Unauthorized Motor Vehicle Use",
        "district": "53",
        "date": "12/27/2025"
      }
    },
    {
      "type": "Feature",
      "geometry": {
        "type": "Polygon",
        "coordinates": [
          [
            [
              -96.5956944,
              32.8390754
            ],
            [
              -96.5954335,
              32.8390754
            ],
            [
              -96.5954335,
              32.8426975
            ],
            [
              -96.5956944,
              32.8426975
            ],
            [
              -96.5956944,
              32.8390754
            ]
          ]
        ]
      },
      "properties": {
        "address": "59XX BROADWAY BLVD Garland TX",
        "incident": "BURGLARY-BLDG",
        "short_description": "Building Burglary",
        "district": "54",
        "date": "12/24/2025"
      }
    },
    {
      "type": "Feature",
      "geometry": {
        "type": "Polygon",
        "coordinates": [
          [
            [
              -96.576225,
              32.85967
            ],
            [
              -96.574834,
              32.85967
            ],
            [
              -96.574834,
              32.860145
            ],
            [
              -96.576225,
              32.860145
            ],
            [
              -96.576225,
              32.85967
            ]
          ]
        ]
      },
      "properties": {
        "address": "34XX SHORESIDE DR Garland TX",
        "incident": "CRIMINAL MISCHIEF $100 L/T $750",
        "short_description": "Criminal Mischief",
        "district": "54",
        "date": "12/26/2025"
      }
    },
    {
      "type": "Feature",
      "geometry": {
        "type": "Polygon",
        "coordinates": [
          [
            [
              -96.5659925,
              32.8452328
            ],
            [
              -96.56562,
              32.8452328
            ],
            [
              -96.56562,
              32.8457317
            ],
            [
              -96.5659925,
              32.8457317
            ],
            [
              -96.5659925,
              32.8452328
            ]
          ]
        ]
      },
      "properties": {
        "address": "43XX MARTINDALE DR Garland TX",
        "incident": "BURGLARY-VEH",
        "short_description": "Vehicle Burglary",
        "district": "55",
        "date": "12/22/2025"
      }
    },
    {
      "type": "Feature",
      "geometry": {
        "type": "Polygon",
        "coordinates": [
          [
            [
              -96.5957822,
              32.8377776
            ],
            [
              -96.5954591,
              32.8377776
            ],
            [
              -96.5954591,
              32.8382013
            ],
            [
              -96.5957822,
              32.8382013
            ],
            [
              -96.5957822,
              32.8377776
            ]
          ]
        ]
      },
      "properties": {
        "address": "62XX BROADWAY BLVD Garland TX",
        "incident": "THEFT-SHOPLIFTING-$100 L/T $750",
        "short_description": "Shoplifting",
        "district": "55",
        "date": "12/22/2025"
      }
    },
    {
      "type": "Feature",
      "geometry": {
        "type": "Polygon",
        "coordinates": [
          [
            [
              -96.5874909,
              32.8376605
            ],
            [
              -96.586243,
              32.8376605
            ],
            [
              -96.586243,
              32.838739
            ],
            [
              -96.5874909,
              32.838739
            ],
            [
              -96.5874909,
              32.8376605
            ]
          ]
        ]
      },
      "properties": {
        "address": "27XX DOVE MEADOW DR Garland TX",
        "incident": "CRIMINAL MISCHIEF $750 L/T $2,500",
        "short_description": "CRIMINAL MISCHIEF $750 L/T $2,500",
        "district": "55",
        "date": "12/22/2025"
      }
    },
    {
      "type": "Feature",
      "geometry": {
        "type": "Polygon",
        "coordinates": [
          [
            [
              -96.569756,
              32.8485205
            ],
            [
              -96.5664091,
              32.8485205
            ],
            [
              -96.5664091,
              32.850004
            ],
            [
              -96.569756,
              32.850004
            ],
            [
              -96.569756,
              32.8485205
            ]
          ]
        ]
      },
      "properties": {
        "address": "40XX BOBTOWN RD Garland TX",
        "incident": "BURGLARY-BLDG",
        "short_description": "Building Burglary",
        "district": "55",
        "date": "12/24/2025"
      }
    },
    {
      "type": "Feature",
      "geometry": {
        "type": "Polygon",
        "coordinates": [
          [
            [
              -96.569756,
              32.8485205
            ],
            [
              -96.5664091,
              32.8485205
            ],
            [
              -96.5664091,
              32.850004
            ],
            [
              -96.569756,
              32.850004
            ],
            [
              -96.569756,
              32.8485205
            ]
          ]
        ]
      },
      "properties": {
        "address": "40XX BOBTOWN RD Garland TX",
        "incident": "CRIMINAL MISCHIEF $100 L/T $750",
        "short_description": "Criminal Mischief",
        "district": "55",
        "date": "12/26/2025"
      }
    },
    {
      "type": "Feature",
      "geometry": {
        "type": "Polygon",
        "coordinates": [
          [
            [
              -96.5399706,
              32.8581196
            ],
            [
              -96.5393359,
              32.8581196
            ],
            [
              -96.5393359,
              32.8591257
            ],
            [
              -96.5399706,
              32.8591257
            ],
            [
              -96.5399706,
              32.8581196
            ]
          ]
        ]
      },
      "properties": {
        "address": "62XX LAKE HUBBARD PKWY Garland TX",
        "incident": "CRIMINAL MISCHIEF $100 L/T $750",
        "short_description": "Criminal Mischief",
        "district": "56",
        "date": "12/22/2025"
      }
    },
    {
      "type": "Feature",
      "geometry": {
        "type": "Polygon",
        "coordinates": [
          [
            [
              -96.544987,
              32.862062
            ],
            [
              -96.544766,
              32.862062
            ],
            [
              -96.544766,
              32.862511
            ],
            [
              -96.544987,
              32.862511
            ],
            [
              -96.544987,
              32.862062
            ]
          ]
        ]
      },
      "properties": {
        "address": "43XX POINT BLVD Garland TX",
        "incident": "BURGLARY-BLDG",
        "short_description": "Building Burglary",
        "district": "56",
        "date": "12/22/2025"
      }
    },
    {
      "type": "Feature",
      "geometry": {
        "type": "Polygon",
        "coordinates": [
          [
            [
              -96.544987,
              32.862062
            ],
            [
              -96.544766,
              32.862062
            ],
            [
              -96.544766,
              32.862511
            ],
            [
              -96.544987,
              32.862511
            ],
            [
              -96.544987,
              32.862062
            ]
          ]
        ]
      },
      "properties": {
        "address": "43XX POINT BLVD Garland TX",
        "incident": "THEFT-MOTOR VEHICLE-$2,500 L/T $30,000",
        "short_description": "THEFT-MOTOR VEHICLE-$2,500 L/T $30,000",
        "district": "56",
        "date": "12/22/2025"
      }
    }
  ]
}