{"type":"FeatureCollection","features":[{"type":"Feature","properties":{"district":"24","sector":"20"},"geometry":{"type":"Polygon","coordinates":[[[-96.70576,32.93096],[-96.70578,32.91653],[-96.70052,32.91644],[-96.70068,32.90937],[-96.69748,32.90933],[-96.69754,32.90257],[-96.69255,32.9041],[-96.69256,32.90381],[-96.68292,32.90691],[-96.68304,32.93132],[-96.70575,32.93141],[-96.70576,32.93096]]]}},{"type":"Feature","properties":{"district":"21","sector":"20"},"geometry":{"type":"Polygon","coordinates":[[[-96.68241,32.97319],[-96.68258,32.95148],[-96.66539,32.95152],[-96.66539,32.96678],[-96.66434,32.96989],[-96.66538,32.97262],[-96.66534,32.97775],[-96.66527,32.9792],[-96.66419,32.98022],[-96.66576,32.98232],[-96.66664,32.985],[-96.66936,32.98497],[-96.66979,32.98418],[-96.67246,32.98527],[-96.67792,32.98497],[-96.68221,32.98529],[-96.68232,32.97902],[-96.68145,32.9786],[-96.68191,32.97816],[-96.68233,32.97827],[-96.68241,32.97319]]]}},{"type":"Feature","properties":{"district":"26","sector":"20"},"geometry":{"type":"Polygon","coordinates":[[[-96.68298,32.91722],[-96.68293,32.90925],[-96.6536,32.909],[-96.65183,32.90866],[-96.64809,32.90901],[-96.64812,32.91624],[-96.67863,32.91655],[-96.68298,32.91722]]]}},{"type":"Feature","properties":{"district":"27","sector":"20"},"geometry":{"type":"Polygon","coordinates":[[[-96.69256,32.90391],[-96.69171,32.90407],[-96.69176,32.89453],[-96.64907,32.89442],[-96.64879,32.89534],[-96.64871,32.90622],[-96.64809,32.90901],[-96.65183,32.90866],[-96.6536,32.909],[-96.68293,32.90925],[-96.68292,32.90691],[-96.69256,32.90391]]]}},{"type":"Feature","properties":{"district":"43","sector":"40"},"geometry":{"type":"Polygon","coordinates":[[[-96.68322,32.87903],[-96.69016,32.87889],[-96.68656,32.87681],[-96.68298,32.87345],[-96.67981,32.87174],[-96.67694,32.87059],[-96.67106,32.8693],[-96.66938,32.86755],[-96.66946,32.86635],[-96.66911,32.86616],[-96.66821,32.86743],[-96.66585,32.86598],[-96.66588,32.86562],[-96.66523,32.8656],[-96.66284,32.86409],[-96.64835,32.86414],[-96.64812,32.8788],[-96.68322,32.87903]]]}},{"type":"Feature","properties":{"district":"22","sector":"20"},"geometry":{"type":"Polygon","coordinates":[[[-96.66535,32.97528],[-96.66535,32.97249],[-96.66434,32.96989],[-96.66539,32.96678],[-96.66539,32.95152],[-96.65364,32.95143],[-96.65637,32.95385],[-96.64302,32.96495],[-96.64189,32.96651],[-96.64114,32.96938],[-96.64087,32.98489],[-96.64774,32.98501],[-96.64775,32.98446],[-96.66507,32.98439],[-96.66506,32.98497],[-96.66664,32.985],[-96.66576,32.98232],[-96.66419,32.98022],[-96.66527,32.9792],[-96.66535,32.97528]]]}},{"type":"Feature","properties":{"district":"23","sector":"20"},"geometry":{"type":"Polygon","coordinates":[[[-96.68304,32.93132],[-96.66781,32.93113],[-96.66261,32.93043],[-96.65905,32.93039],[-96.657,32.93069],[-96.64996,32.93066],[-96.64823,32.93108],[-96.64803,32.94533],[-96.64838,32.94683],[-96.64907,32.94782],[-96.65355,32.95152],[-96.68258,32.95148],[-96.68258,32.93132],[-96.68304,32.93132]]]}},{"type":"Feature","properties":{"district":"25","sector":"20"},"geometry":{"type":"Polygon","coordinates":[[[-96.68309,32.92857],[-96.68298,32.91722],[-96.67863,32.91655],[-96.64812,32.91624],[-96.64823,32.93108],[-96.64996,32.93066],[-96.657,32.93069],[-96.65905,32.93039],[-96.66261,32.93043],[-96.66781,32.93113],[-96.68292,32.93118],[-96.68309,32.92857]]]}},{"type":"Feature","properties":{"district":"41","sector":"40"},"geometry":{"type":"Polygon","coordinates":[[[-96.69176,32.89453],[-96.69369,32.89441],[-96.69373,32.89034],[-96.69052,32.89032],[-96.69056,32.8861],[-96.6832,32.88607],[-96.68307,32.87886],[-96.64812,32.8788],[-96.64827,32.89441],[-96.69176,32.89453]]]}},{"type":"Feature","properties":{"district":"31","sector":"30"},"geometry":{"type":"Polygon","coordinates":[[[-96.64824,32.93824],[-96.64823,32.93108],[-96.63238,32.93082],[-96.62604,32.93101],[-96.61864,32.95425],[-96.61696,32.95728],[-96.61047,32.96646],[-96.60754,32.96892],[-96.61264,32.97329],[-96.61349,32.97458],[-96.61347,32.98433],[-96.61807,32.98441],[-96.61809,32.9848],[-96.61895,32.98505],[-96.61921,32.98461],[-96.6199,32.98497],[-96.62051,32.98448],[-96.62244,32.98394],[-96.62272,32.98442],[-96.62351,32.98466],[-96.6235,32.98507],[-96.62855,32.9851],[-96.62789,32.9841],[-96.62834,32.98404],[-96.62894,32.98427],[-96.62951,32.9852],[-96.64071,32.98558],[-96.64114,32.96938],[-96.64199,32.96627],[-96.64302,32.96495],[-96.65637,32.95385],[-96.64849,32.94709],[-96.64803,32.94533],[-96.64824,32.93824]]]}},{"type":"Feature","properties":{"district":"34","sector":"30"},"geometry":{"type":"Polygon","coordinates":[[[-96.64907,32.89442],[-96.64866,32.89441],[-96.62949,32.92125],[-96.62848,32.92337],[-96.62604,32.93101],[-96.63238,32.93082],[-96.64823,32.93108],[-96.64809,32.90892],[-96.64871,32.90622],[-96.64879,32.89534],[-96.64907,32.89442]]]}},{"type":"Feature","properties":{"district":"36","sector":"30"},"geometry":{"type":"Polygon","coordinates":[[[-96.64866,32.89441],[-96.63094,32.89428],[-96.63077,32.90888],[-96.62313,32.90878],[-96.62072,32.90803],[-96.61524,32.90802],[-96.61384,32.90844],[-96.62821,32.91638],[-96.63,32.91694],[-96.6325,32.91693],[-96.64866,32.89441]]]}},{"type":"Feature","properties":{"district":"42","sector":"40"},"geometry":{"type":"Polygon","coordinates":[[[-96.64827,32.89441],[-96.64812,32.8788],[-96.62157,32.87876],[-96.60891,32.88894],[-96.60212,32.89402],[-96.64827,32.89441]]]}},{"type":"Feature","properties":{"district":"44","sector":"40"},"geometry":{"type":"Polygon","coordinates":[[[-96.64821,32.87712],[-96.64835,32.86414],[-96.64575,32.86388],[-96.64249,32.86122],[-96.62157,32.87876],[-96.64812,32.8788],[-96.64821,32.87712]]]}},{"type":"Feature","properties":{"district":"51","sector":"50"},"geometry":{"type":"Polygon","coordinates":[[[-96.61578,32.84907],[-96.61356,32.85063],[-96.6111,32.85087],[-96.61012,32.85126],[-96.61222,32.85355],[-96.61404,32.85454],[-96.61763,32.85796],[-96.61886,32.86004],[-96.62114,32.86121],[-96.62228,32.86218],[-96.62323,32.86362],[-96.62731,32.86748],[-96.62817,32.86907],[-96.63059,32.87123],[-96.64915,32.85558],[-96.64525,32.85286],[-96.63755,32.8462],[-96.63619,32.8448],[-96.63539,32.84329],[-96.6283,32.84918],[-96.62205,32.84383],[-96.61578,32.84907]]]}},{"type":"Feature","properties":{"district":"35","sector":"30"},"geometry":{"type":"Polygon","coordinates":[[[-96.6325,32.91693],[-96.63,32.91694],[-96.62821,32.91638],[-96.61548,32.90922],[-96.60326,32.90431],[-96.60092,32.90422],[-96.59276,32.90581],[-96.59282,32.9068],[-96.5935,32.90842],[-96.59448,32.90849],[-96.59345,32.9085],[-96.59316,32.90899],[-96.59337,32.91057],[-96.5932,32.91983],[-96.5969,32.91993],[-96.60512,32.91933],[-96.6061,32.91972],[-96.60888,32.92194],[-96.61372,32.92212],[-96.61379,32.92887],[-96.61421,32.92957],[-96.61605,32.93086],[-96.62604,32.93101],[-96.62902,32.92214],[-96.6325,32.91693]]]}},{"type":"Feature","properties":{"district":"37","sector":"30"},"geometry":{"type":"Polygon","coordinates":[[[-96.63087,32.90496],[-96.63094,32.89428],[-96.59243,32.89401],[-96.59316,32.8988],[-96.59384,32.89879],[-96.59376,32.89823],[-96.5945,32.89805],[-96.5951,32.89885],[-96.59652,32.89873],[-96.59564,32.89946],[-96.59588,32.90001],[-96.59831,32.90075],[-96.59589,32.90033],[-96.59566,32.90174],[-96.59527,32.89998],[-96.59552,32.89971],[-96.5952,32.8995],[-96.59543,32.89907],[-96.59374,32.89927],[-96.59415,32.90054],[-96.5936,32.90098],[-96.59275,32.89933],[-96.59276,32.90024],[-96.59315,32.90067],[-96.59313,32.90162],[-96.59277,32.90183],[-96.59276,32.90581],[-96.60209,32.90417],[-96.60452,32.90468],[-96.61384,32.90844],[-96.61524,32.90802],[-96.62072,32.90803],[-96.62313,32.90878],[-96.63077,32.90888],[-96.63087,32.90496]]]}},{"type":"Feature","properties":{"district":"45","sector":"40"},"geometry":{"type":"Polygon","coordinates":[[[-96.63059,32.87123],[-96.62817,32.86907],[-96.62731,32.86748],[-96.62323,32.86362],[-96.62228,32.86218],[-96.62114,32.86121],[-96.61886,32.86004],[-96.61778,32.85812],[-96.61599,32.8565],[-96.60745,32.86316],[-96.59078,32.87735],[-96.59171,32.87804],[-96.59217,32.8795],[-96.59198,32.88011],[-96.59235,32.88066],[-96.59368,32.88068],[-96.59405,32.88105],[-96.59483,32.88116],[-96.59584,32.88067],[-96.59479,32.8815],[-96.5949,32.88207],[-96.59378,32.88183],[-96.5949,32.88283],[-96.59483,32.88349],[-96.59533,32.884],[-96.59664,32.8839],[-96.59697,32.88421],[-96.59694,32.88473],[-96.5974,32.88497],[-96.59764,32.88442],[-96.59832,32.88411],[-96.59769,32.88522],[-96.59952,32.88471],[-96.59747,32.88571],[-96.5968,32.88564],[-96.59578,32.88492],[-96.59526,32.88538],[-96.59496,32.88665],[-96.59691,32.88766],[-96.59746,32.88878],[-96.59706,32.88997],[-96.59715,32.89115],[-96.59502,32.89365],[-96.59394,32.89367],[-96.59377,32.8929],[-96.59337,32.8934],[-96.59313,32.89252],[-96.59276,32.8927],[-96.59256,32.89244],[-96.592,32.89073],[-96.5921,32.89012],[-96.59117,32.88972],[-96.59243,32.89401],[-96.60212,32.89402],[-96.61715,32.8824],[-96.63059,32.87123]]]}},{"type":"Feature","properties":{"district":"52","sector":"50"},"geometry":{"type":"Polygon","coordinates":[[[-96.61011,32.83425],[-96.60941,32.83246],[-96.60027,32.83632],[-96.5997,32.83609],[-96.5997,32.83561],[-96.59875,32.83493],[-96.59707,32.83459],[-96.59705,32.83394],[-96.5957,32.83328],[-96.59567,32.84626],[-96.59809,32.84502],[-96.60026,32.84476],[-96.60366,32.84773],[-96.60742,32.84901],[-96.61012,32.85126],[-96.6111,32.85087],[-96.61313,32.85076],[-96.61434,32.85021],[-96.62205,32.84383],[-96.61674,32.83931],[-96.61568,32.84024],[-96.6066,32.84025],[-96.6059,32.84154],[-96.60701,32.84326],[-96.60592,32.84427],[-96.60259,32.84178],[-96.60193,32.8418],[-96.6003,32.83863],[-96.6103,32.83473],[-96.61011,32.83425]]]}},{"type":"Feature","properties":{"district":"33","sector":"30"},"geometry":{"type":"Polygon","coordinates":[[[-96.61372,32.92212],[-96.60888,32.92194],[-96.6061,32.91972],[-96.60512,32.91933],[-96.5969,32.91993],[-96.5932,32.91983],[-96.59128,32.92028],[-96.58607,32.92854],[-96.58127,32.93152],[-96.57509,32.93653],[-96.57765,32.93963],[-96.57825,32.93989],[-96.57978,32.93956],[-96.58249,32.94187],[-96.57459,32.94799],[-96.56001,32.9483],[-96.55866,32.94744],[-96.55454,32.94663],[-96.55381,32.9473],[-96.55388,32.94814],[-96.55359,32.94837],[-96.55135,32.94833],[-96.55111,32.94806],[-96.55137,32.94768],[-96.55082,32.94762],[-96.55102,32.94712],[-96.55015,32.94738],[-96.54968,32.94703],[-96.5496,32.94646],[-96.55028,32.9453],[-96.55012,32.94501],[-96.54963,32.94505],[-96.55016,32.94452],[-96.54986,32.94406],[-96.55038,32.94389],[-96.55032,32.9431],[-96.54989,32.94193],[-96.54852,32.94086],[-96.54264,32.9456],[-96.5483,32.9505],[-96.53345,32.96212],[-96.53354,32.96244],[-96.53237,32.96162],[-96.53262,32.96198],[-96.53238,32.96217],[-96.53206,32.96189],[-96.53004,32.96356],[-96.5329,32.96606],[-96.53539,32.96405],[-96.53391,32.96252],[-96.53751,32.96563],[-96.54369,32.9608],[-96.54682,32.96347],[-96.55149,32.96074],[-96.55176,32.96003],[-96.55246,32.96023],[-96.55212,32.95967],[-96.55243,32.95947],[-96.55235,32.95907],[-96.55183,32.95908],[-96.55198,32.95851],[-96.55146,32.95838],[-96.55147,32.95779],[-96.55217,32.95783],[-96.55164,32.95731],[-96.55192,32.9572],[-96.55099,32.95761],[-96.55087,32.95688],[-96.5515,32.95696],[-96.5515,32.95644],[-96.55217,32.95636],[-96.55179,32.95599],[-96.55208,32.95578],[-96.55167,32.95522],[-96.55233,32.9553],[-96.55305,32.9549],[-96.55226,32.95429],[-96.55266,32.95402],[-96.55219,32.95383],[-96.55308,32.95349],[-96.55223,32.9531],[-96.55201,32.95241],[-96.55095,32.95208],[-96.55091,32.95114],[-96.55058,32.95088],[-96.55137,32.9507],[-96.5506,32.95032],[-96.55124,32.95015],[-96.55114,32.94966],[-96.55226,32.94942],[-96.55176,32.94867],[-96.55372,32.94865],[-96.55422,32.94826],[-96.55415,32.9474],[-96.55465,32.94694],[-96.55853,32.9477],[-96.55991,32.94858],[-96.57472,32.94826],[-96.58285,32.94197],[-96.58367,32.94161],[-96.58808,32.94518],[-96.5884,32.94615],[-96.58952,32.94715],[-96.59378,32.94443],[-96.60118,32.93818],[-96.60316,32.93755],[-96.60536,32.93586],[-96.60829,32.93498],[-96.61446,32.92979],[-96.61374,32.92857],[-96.61372,32.92212]]]}},{"type":"Feature","properties":{"district":"53","sector":"50"},"geometry":{"type":"Polygon","coordinates":[[[-96.61599,32.8565],[-96.61404,32.85454],[-96.61222,32.85355],[-96.61089,32.85193],[-96.60757,32.8491],[-96.60393,32.84789],[-96.60059,32.84489],[-96.59957,32.84469],[-96.59831,32.84496],[-96.59497,32.8466],[-96.58363,32.85577],[-96.57932,32.85883],[-96.57357,32.86427],[-96.57233,32.86587],[-96.57199,32.86683],[-96.5739,32.86577],[-96.57664,32.86593],[-96.57731,32.86538],[-96.5772,32.86576],[-96.57789,32.86571],[-96.57875,32.86471],[-96.57807,32.86603],[-96.57704,32.86612],[-96.57706,32.86635],[-96.57797,32.8666],[-96.57884,32.86734],[-96.57948,32.86716],[-96.58091,32.86743],[-96.58147,32.86829],[-96.582,32.86751],[-96.58212,32.86791],[-96.58246,32.86807],[-96.58253,32.86785],[-96.58254,32.86815],[-96.58159,32.8686],[-96.5823,32.86979],[-96.58396,32.86972],[-96.58405,32.87038],[-96.58449,32.87076],[-96.58618,32.87147],[-96.58587,32.87227],[-96.58679,32.87236],[-96.58559,32.87266],[-96.58562,32.87322],[-96.58675,32.87346],[-96.58782,32.87451],[-96.58844,32.87451],[-96.58852,32.8752],[-96.58988,32.87598],[-96.59078,32.87735],[-96.60745,32.86316],[-96.61599,32.8565]]]}},{"type":"Feature","properties":{"district":"54","sector":"50"},"geometry":{"type":"Polygon","coordinates":[[[-96.59542,32.84633],[-96.59567,32.84626],[-96.59559,32.84007],[-96.56201,32.8536],[-96.55972,32.86059],[-96.55903,32.86112],[-96.55939,32.86162],[-96.55884,32.86309],[-96.56038,32.86342],[-96.56201,32.86305],[-96.56235,32.86272],[-96.56246,32.86298],[-96.5634,32.86261],[-96.56517,32.86253],[-96.56681,32.8636],[-96.56763,32.86358],[-96.56769,32.86421],[-96.56823,32.86459],[-96.56798,32.86489],[-96.56905,32.86577],[-96.57135,32.86685],[-96.57199,32.86683],[-96.57233,32.86587],[-96.57357,32.86427],[-96.57884,32.85925],[-96.59542,32.84633]]]}},{"type":"Feature","properties":{"district":"55","sector":"50"},"geometry":{"type":"Polygon","coordinates":[[[-96.5957,32.83328],[-96.59553,32.83408],[-96.56612,32.83393],[-96.56528,32.82968],[-96.56443,32.82996],[-96.56068,32.83354],[-96.55972,32.83363],[-96.56046,32.83618],[-96.56057,32.84703],[-96.56089,32.84774],[-96.56162,32.8483],[-96.56368,32.84849],[-96.56201,32.8536],[-96.59559,32.84007],[-96.5957,32.83328]]]}},{"type":"Feature","properties":{"district":"32","sector":"30"},"geometry":{"type":"Polygon","coordinates":[[[-96.62074,32.94775],[-96.62604,32.93101],[-96.61629,32.93091],[-96.61446,32.92979],[-96.60829,32.93498],[-96.60536,32.93586],[-96.60316,32.93755],[-96.60118,32.93818],[-96.59378,32.94443],[-96.58952,32.94715],[-96.58914,32.9475],[-96.58917,32.95059],[-96.58724,32.95231],[-96.6046,32.96721],[-96.60754,32.96892],[-96.61047,32.96646],[-96.61778,32.95601],[-96.619,32.95328],[-96.62074,32.94775]]]}},{"type":"Feature","properties":{"district":"56","sector":"50"},"geometry":{"type":"Polygon","coordinates":[[[-96.5399,32.86818],[-96.54204,32.86772],[-96.54406,32.86821],[-96.54483,32.86775],[-96.54685,32.86766],[-96.54704,32.86726],[-96.54679,32.86686],[-96.54768,32.86497],[-96.54918,32.86392],[-96.55161,32.86284],[-96.55249,32.862],[-96.55344,32.86178],[-96.55657,32.8622],[-96.55884,32.86309],[-96.55939,32.86162],[-96.55903,32.86112],[-96.55972,32.86059],[-96.56368,32.84849],[-96.56188,32.8484],[-96.56074,32.84755],[-96.56055,32.84091],[-96.55628,32.84088],[-96.55622,32.84672],[-96.55275,32.8468],[-96.55269,32.84729],[-96.55229,32.84718],[-96.55183,32.84761],[-96.55082,32.84747],[-96.55073,32.84817],[-96.54987,32.84815],[-96.55063,32.84874],[-96.54981,32.84888],[-96.54596,32.8466],[-96.54542,32.84687],[-96.54525,32.84823],[-96.54651,32.84936],[-96.54666,32.85067],[-96.54814,32.85193],[-96.54783,32.85317],[-96.54656,32.85494],[-96.54707,32.85614],[-96.5477,32.85638],[-96.54751,32.85742],[-96.54896,32.85863],[-96.55022,32.85826],[-96.55082,32.85846],[-96.54882,32.85898],[-96.54507,32.85773],[-96.5442,32.85799],[-96.54224,32.85764],[-96.54002,32.85777],[-96.53914,32.8582],[-96.53827,32.85997],[-96.53814,32.86223],[-96.5398,32.86404],[-96.53848,32.86382],[-96.53733,32.86442],[-96.53674,32.86537],[-96.53723,32.86701],[-96.53893,32.86801],[-96.5399,32.86818]]]}},{"type":"Feature","properties":{"district":"46","sector":"40"},"geometry":{"type":"Polygon","coordinates":[[[-96.64249,32.86122],[-96.64536,32.86365],[-96.64651,32.8641],[-96.66284,32.86409],[-96.64915,32.85558],[-96.64249,32.86122]]]}}]}